[{"OBJECT_NAME":"CUBESX-HSE 3 (RS42S)","OBJECT_ID":"2023-091N","EPOCH":"2026-03-09T22:57:25.321248","MEAN_MOTION":15.286147,"ECCENTRICITY":0.00127191,"INCLINATION":97.5203,"RA_OF_ASC_NODE":133.4295,"ARG_OF_PERICENTER":86.5376,"MEAN_ANOMALY":273.7318,"EPHEMERIS_TYPE":0,"CLASSIFICATION_TYPE":"U","NORAD_CAT_ID":57178,"ELEMENT_SET_NO":999,"REV_AT_EPOCH":14925,"BSTAR":0.00059055694,"MEAN_MOTION_DOT":0.00016417,"MEAN_MOTION_DDOT":0},{"OBJECT_NAME":"STARLINK-32592","OBJECT_ID":"2024-216D","EPOCH":"2026-03-09T21:43:12.180576","MEAN_MOTION":15.27601841,"ECCENTRICITY":0.00017753,"INCLINATION":43.0007,"RA_OF_ASC_NODE":262.4547,"ARG_OF_PERICENTER":283.7388,"MEAN_ANOMALY":76.3266,"EPHEMERIS_TYPE":0,"CLASSIFICATION_TYPE":"U","NORAD_CAT_ID":62035,"ELEMENT_SET_NO":999,"REV_AT_EPOCH":7383,"BSTAR":0.00099861211,"MEAN_MOTION_DOT":0.00027338,"MEAN_MOTION_DDOT":0}]
